OBJECT_NAME,OBJECT_ID,EPOCH,MEAN_MOTION,ECCENTRICITY,INCLINATION,RA_OF_ASC_NODE,ARG_OF_PERICENTER,MEAN_ANOMALY,EPHEMERIS_TYPE,CLASSIFICATION_TYPE,NORAD_CAT_ID,ELEMENT_SET_NO,REV_AT_EPOCH,BSTAR,MEAN_MOTION_DOT,MEAN_MOTION_DDOT
M2 PATHFINDER,2020-037E,2026-07-17T12:04:21.086112,15.04794835,.00127,97.8140,30.0778,55.2846,304.9574,0,U,45727,999,33005,.49423E-4,.634E-5,0
NETSAT-4,2020-068U,2026-07-17T23:11:36.252384,15.44815149,.00050833,97.8604,209.7038,183.5577,176.5635,0,U,46504,999,32052,.2230287E-3,.10356E-3,0
NETSAT-3,2020-068V,2026-07-17T22:20:39.776352,15.43666595,.00041855,97.8657,207.8446,199.2540,160.8550,0,U,46505,999,32042,.23046741E-3,.10293E-3,0
NETSAT-1,2020-068W,2026-07-17T23:16:29.106912,15.35283657,.0002601,97.8757,201.8469,246.1321,113.9649,0,U,46506,999,32002,.20313651E-3,.687E-4,0
NETSAT-2,2020-068X,2026-07-17T23:03:46.208736,15.47240985,.00025596,97.8616,209.7117,196.7743,163.3421,0,U,46507,999,32049,.27836942E-3,.14077E-3,0
GREENCUBE (IO-117),2022-080E,2026-07-17T05:19:51.690720,6.42583336,.0009072,70.1407,287.8015,282.9900,76.9746,0,U,53109,999,9399,0,-.3E-7,0
SITRO-AIS 5 (KATYS),2023-091L,2026-07-17T22:38:37.913568,15.30099768,.00103744,97.5040,263.1472,2.6754,357.4540,0,U,57176,999,16904,.21490945E-3,.6191E-4,0
SITRO-AIS 6 (CHIRKIN),2023-091AC,2026-07-17T20:43:21.186624,15.26465575,.0010896,97.5048,262.0200,7.3028,352.8367,0,U,57192,999,16896,.20131675E-3,.5182E-4,0
SITRO-AIS 8 (ANOKHIN),2023-091AD,2026-07-17T21:43:56.027712,15.32899830,.0009224,97.5035,264.8255,358.0830,2.0375,0,U,57193,999,16915,.22870279E-3,.7195E-4,0
SITRO-AIS 7 (FARTUSHNIY),2023-091AE,2026-07-17T22:31:32.474784,15.26139707,.00108482,97.5044,261.9041,8.2854,351.8561,0,U,57194,999,16896,.20238219E-3,.5158E-4,0
SITRO-AIS 10 (BURDAEV),2023-091AK,2026-07-17T22:25:55.574400,15.39690277,.00046391,97.5062,270.2346,329.0440,31.0531,0,U,57199,999,16949,.29238553E-3,.11469E-3,0
SITRO-AIS 9 (SHCHUKIN),2023-091AM,2026-07-17T21:44:48.035328,15.39173225,.00049151,97.5061,269.9105,329.8372,30.2590,0,U,57201,999,16947,.27772791E-3,.10705E-3,0
SITRO-AIS 12 (SMIRENNIY),2023-091AQ,2026-07-17T22:56:27.744288,15.39468934,.00044697,97.5073,270.4482,321.5661,38.5265,0,U,57204,999,16950,.2759059E-3,.10738E-3,0
SITRO-AIS 11 (SHEFFER),2023-091AU,2026-07-17T23:03:15.788160,15.39915306,.00044101,97.5071,270.7194,320.9764,39.1163,0,U,57208,999,16952,.28949708E-3,.11439E-3,0
SITRO-AIS 25,2024-039R,2026-07-17T22:14:14.745984,14.93652405,.01429978,95.3890,256.2157,219.8648,139.2007,0,U,59066,999,12931,.1333541E-3,.1687E-4,0
SITRO-AIS 26,2024-039S,2026-07-17T22:22:19.631424,14.93443463,.01433254,95.3891,256.1108,220.4629,138.5870,0,U,59067,999,12930,.11568166E-3,.1452E-4,0
SITRO-AIS 27,2024-039T,2026-07-17T21:26:59.810784,14.93867037,.01424323,95.3896,256.3705,219.1065,139.9800,0,U,59068,999,12932,.12860399E-3,.1633E-4,0
SITRO-AIS 28,2024-039U,2026-07-17T22:29:58.645248,14.93902039,.01422997,95.3894,256.4495,218.8026,140.2916,0,U,59071,999,12933,.11218745E-3,.1421E-4,0
GRBBETA,2024-128C,2026-07-17T21:07:35.153472,15.06818842,.00367448,61.9888,108.5638,141.2952,219.0784,0,U,60237,999,11089,.127828E-3,.172E-4,0
OOV-CUBE (TUBSAT-30),2024-128F,2026-07-17T22:16:55.824960,15.02880169,.00407774,61.9941,118.3707,140.6184,219.7884,0,U,60240,999,11073,.8351939E-4,.929E-5,0
ROBUSTA-3A (MEDITERRANEE),2024-128J,2026-07-17T21:21:29.541600,15.12008486,.00377983,61.9863,99.6408,134.1750,226.2463,0,U,60243,999,11106,.22532091E-3,.3725E-4,0
LASARSAT,2024-247Q,2026-07-17T16:58:03.270720,15.48150140,.00078211,44.9738,90.4716,182.2706,177.8150,0,U,62391,999,8804,.37983302E-3,.20116E-3,0
CROCUBE,2024-247T,2026-07-17T22:08:29.621184,15.50331546,.00079526,44.9717,86.0526,189.7877,170.2860,0,U,62394,999,8811,.42845514E-3,.24594E-3,0
FORESAIL-1 PRIME,2025-276DS,2026-07-17T04:05:35.310912,15.18947700,.00027374,97.4189,270.8955,40.2765,319.8672,0,U,66778,999,3495,.11111914E-3,.2254E-4,0
KNACKSAT-2,1998-067XZ,2026-07-17T05:47:37.449888,15.62548905,.0007952,51.6276,143.0009,335.1166,24.9444,0,U,67683,999,2497,.37883E-3,.34112E-3,0
